[{"OBJECT_NAME":"CAS-2T & KS-1Q","OBJECT_ID":"2016-066G","EPOCH":"2026-03-09T16:58:07.740192","MEAN_MOTION":14.44469485,"ECCENTRICITY":0.03436678,"INCLINATION":98.388,"RA_OF_ASC_NODE":145.5568,"ARG_OF_PERICENTER":71.4405,"MEAN_ANOMALY":292.3791,"EPHEMERIS_TYPE":0,"CLASSIFICATION_TYPE":"U","NORAD_CAT_ID":41847,"ELEMENT_SET_NO":999,"REV_AT_EPOCH":49043,"BSTAR":0.00023398968,"MEAN_MOTION_DOT":1.617e-5,"MEAN_MOTION_DDOT":0},{"OBJECT_NAME":"COSMOS 1176","OBJECT_ID":"1980-034A","EPOCH":"2026-03-09T22:16:44.853024","MEAN_MOTION":13.9313964,"ECCENTRICITY":0.00592412,"INCLINATION":64.8276,"RA_OF_ASC_NODE":275.5406,"ARG_OF_PERICENTER":299.1501,"MEAN_ANOMALY":60.3641,"EPHEMERIS_TYPE":0,"CLASSIFICATION_TYPE":"U","NORAD_CAT_ID":11788,"ELEMENT_SET_NO":999,"REV_AT_EPOCH":32799,"BSTAR":3.6911659e-5,"MEAN_MOTION_DOT":-4.3e-7,"MEAN_MOTION_DDOT":0}]
